{
    "links": {
        "self": "http://www.neowsapp.com/rest/v1/neo/3548241?api_key=iIulBulltgU6a56xZRHN4H3l9WmuAYTsLGpBGhQ2"
    },
    "id": "3548241",
    "neo_reference_id": "3548241",
    "name": "(2010 TQ19)",
    "designation": "2010 TQ19",
    "nasa_jpl_url": "http://ssd.jpl.nasa.gov/sbdb.cgi?sstr=3548241",
    "absolute_magnitude_h": 25.3,
    "estimated_diameter": {
        "kilometers": {
            "estimated_diameter_min": 0.0231502122,
            "estimated_diameter_max": 0.0517654482
        },
        "meters": {
            "estimated_diameter_min": 23.150212221,
            "estimated_diameter_max": 51.7654482198
        },
        "miles": {
            "estimated_diameter_min": 0.0143848705,
            "estimated_diameter_max": 0.0321655483
        },
        "feet": {
            "estimated_diameter_min": 75.9521422633,
            "estimated_diameter_max": 169.8341531374
        }
    },
    "is_potentially_hazardous_asteroid": false,
    "close_approach_data": [
        {
            "close_approach_date": "1947-09-06",
            "close_approach_date_full": "1947-Sep-06 05:58",
            "epoch_date_close_approach": -704397720000,
            "relative_velocity": {
                "kilometers_per_second": "17.357281824",
                "kilometers_per_hour": "62486.2145664958",
                "miles_per_hour": "38826.5037121651"
            },
            "miss_distance": {
                "astronomical": "0.4156785683",
                "lunar": "161.6989630687",
                "kilometers": "62184628.422329521",
                "miles": "38639736.3532525498"
            },
            "orbiting_body": "Earth"
        },
        {
            "close_approach_date": "1948-04-24",
            "close_approach_date_full": "1948-Apr-24 11:41",
            "epoch_date_close_approach": -684418740000,
            "relative_velocity": {
                "kilometers_per_second": "7.5724949361",
                "kilometers_per_hour": "27260.9817700784",
                "miles_per_hour": "16938.9139226357"
            },
            "miss_distance": {
                "astronomical": "0.0907958985",
                "lunar": "35.3196045165",
                "kilometers": "13582873.020336195",
                "miles": "8440005.926561691"
            },
            "orbiting_body": "Mars"
        },
        {
            "close_approach_date": "2002-11-09",
            "close_approach_date_full": "2002-Nov-09 19:29",
            "epoch_date_close_approach": 1036870140000,
            "relative_velocity": {
                "kilometers_per_second": "7.5869116783",
                "kilometers_per_hour": "27312.8820419441",
                "miles_per_hour": "16971.1627332291"
            },
            "miss_distance": {
                "astronomical": "0.0884770071",
                "lunar": "34.4175557619",
                "kilometers": "13235971.806134877",
                "miles": "8224451.5074482226"
            },
            "orbiting_body": "Mars"
        },
        {
            "close_approach_date": "2010-10-08",
            "close_approach_date_full": "2010-Oct-08 13:08",
            "epoch_date_close_approach": 1286543280000,
            "relative_velocity": {
                "kilometers_per_second": "8.8278212816",
                "kilometers_per_hour": "31780.1566137564",
                "miles_per_hour": "19746.9534248088"
            },
            "miss_distance": {
                "astronomical": "0.0245670633",
                "lunar": "9.5565876237",
                "kilometers": "3675180.341835171",
                "miles": "2283651.1701045198"
            },
            "orbiting_body": "Earth"
        },
        {
            "close_approach_date": "2104-09-13",
            "close_approach_date_full": "2104-Sep-13 00:24",
            "epoch_date_close_approach": 4250708640000,
            "relative_velocity": {
                "kilometers_per_second": "15.1784345975",
                "kilometers_per_hour": "54642.3645511033",
                "miles_per_hour": "33952.6403512119"
            },
            "miss_distance": {
                "astronomical": "0.3275049105",
                "lunar": "127.3994101845",
                "kilometers": "48994037.025340635",
                "miles": "30443482.924485363"
            },
            "orbiting_body": "Earth"
        }
    ],
    "orbital_data": {
        "orbit_id": "10",
        "orbit_determination_date": "2017-04-06 08:56:24",
        "first_observation_date": "2010-10-08",
        "last_observation_date": "2010-10-12",
        "data_arc_in_days": 4,
        "observations_used": 60,
        "orbit_uncertainty": "7",
        "minimum_orbit_intersection": ".0242862",
        "jupiter_tisserand_invariant": "4.614",
        "epoch_osculation": "2459000.5",
        "eccentricity": ".2937218192931795",
        "semi_major_axis": "1.427891439612592",
        "inclination": "14.38579821197275",
        "ascending_node_longitude": "12.96516063159076",
        "orbital_period": "623.2197557562339",
        "perihelion_distance": "1.008488568216424",
        "perihelion_argument": "21.17671370500861",
        "aphelion_distance": "1.84729431100876",
        "perihelion_time": "2459235.056079892357",
        "mean_anomaly": "224.5097688554721",
        "mean_motion": ".5776453597225347",
        "equinox": "J2000",
        "orbit_class": {
            "orbit_class_type": "APO",
            "orbit_class_description": "Near-Earth asteroid orbits which cross the Earth’s orbit similar to that of 1862 Apollo",
            "orbit_class_range": "a (semi-major axis) > 1.0 AU; q (perihelion) < 1.017 AU"
        }
    },
    "is_sentry_object": false
}